{
  "type": "FeatureCollection",
  "features": [
    {
      "type": "Feature",
      "properties": {
        "norad_id": 39227,
        "name": "ARIRANG-5 (KOMPSAT-5)",
        "group": "resource",
        "lat": -68.24961118902401,
        "lon": -17.29196633351908,
        "alt_km": 562.0794921484294,
        "timestamp": "2025-12-24T03:53:29.299402+00:00",
        "meta_object_name": "ARIRANG-5 (KOMPSAT-5)",
        "meta_object_id": "2013-042A",
        "meta_epoch": "2025-12-23T20:24:02.467584",
        "meta_mean_motion": 15.04478901,
        "meta_eccentricity": 0.0003102,
        "meta_inclination": 97.6159,
        "meta_ra_of_asc_node": 181.9957,
        "meta_arg_of_pericenter": 32.7951,
        "meta_mean_anomaly": 327.3467,
        "meta_ephemeris_type": 0,
        "meta_classification_type": "U",
        "meta_norad_cat_id": 39227,
        "meta_element_set_no": 999,
        "meta_rev_at_epoch": 67749,
        "meta_bstar": 0.00016268,
        "meta_mean_motion_dot": 2.215e-05,
        "meta_mean_motion_ddot": 0,
        "tle_line1": "1 39227U 13042A   25357.85002856  .00002215  00000+0  16268-3 0  9994",
        "tle_line2": "2 39227  97.6159 181.9957 0003102  32.7951 327.3467 15.04478901677499"
      },
      "geometry": {
        "type": "Point",
        "coordinates": [
          -17.29196633351908,
          -68.24961118902401
        ]
      }
    },
    {
      "type": "Feature",
      "properties": {
        "norad_id": 39418,
        "name": "SKYSAT-A",
        "group": "resource",
        "lat": -14.824349318168352,
        "lon": -133.9503825376573,
        "alt_km": 521.0213506544715,
        "timestamp": "2025-12-24T03:53:29.299412+00:00",
        "meta_object_name": "SKYSAT-A",
        "meta_object_id": "2013-066C",
        "meta_epoch": "2025-12-23T03:12:07.887168",
        "meta_mean_motion": 15.11675524,
        "meta_eccentricity": 0.00214656,
        "meta_inclination": 97.4089,
        "meta_ra_of_asc_node": 47.0259,
        "meta_arg_of_pericenter": 199.0387,
        "meta_mean_anomaly": 161.0043,
        "meta_ephemeris_type": 0,
        "meta_classification_type": "U",
        "meta_norad_cat_id": 39418,
        "meta_element_set_no": 999,
        "meta_rev_at_epoch": 66187,
        "meta_bstar": 0.00019916729,
        "meta_mean_motion_dot": 3.343e-05,
        "meta_mean_motion_ddot": 0,
        "tle_line1": "1 39418U 13066C   25357.13342462  .00003343  00000+0  19917-3 0  9990",
        "tle_line2": "2 39418  97.4089  47.0259 0021465 199.0387 161.0043 15.11675524661876"
      },
      "geometry": {
        "type": "Point",
        "coordinates": [
          -133.9503825376573,
          -14.824349318168352
        ]
      }
    },
    {
      "type": "Feature",
      "properties": {
        "norad_id": 39419,
        "name": "DUBAISAT-2",
        "group": "resource",
        "lat": -23.953232502252703,
        "lon": 164.88672843298417,
        "alt_km": 544.4574823352814,
        "timestamp": "2025-12-24T03:53:29.299423+00:00",
        "meta_object_name": "DUBAISAT-2",
        "meta_object_id": "2013-066D",
        "meta_epoch": "2025-12-23T20:37:13.844928",
        "meta_mean_motion": 15.0845749,
        "meta_eccentricity": 0.0009956,
        "meta_inclination": 97.4457,
        "meta_ra_of_asc_node": 347.9237,
        "meta_arg_of_pericenter": 277.9845,
        "meta_mean_anomaly": 82.0254,
        "meta_ephemeris_type": 0,
        "meta_classification_type": "U",
        "meta_norad_cat_id": 39419,
        "meta_element_set_no": 999,
        "meta_rev_at_epoch": 65994,
        "meta_bstar": 0.00034374,
        "meta_mean_motion_dot": 5.299e-05,
        "meta_mean_motion_ddot": 0,
        "tle_line1": "1 39419U 13066D   25357.85918802  .00005299  00000+0  34374-3 0  9993",
        "tle_line2": "2 39419  97.4457 347.9237 0009956 277.9845  82.0254 15.08457490659947"
      },
      "geometry": {
        "type": "Point",
        "coordinates": [
          164.88672843298417,
          -23.953232502252703
        ]
      }
    },
    {
      "type": "Feature",
      "properties": {
        "norad_id": 39574,
        "name": "GPM-CORE",
        "group": "resource",
        "lat": 51.93241086678332,
        "lon": -148.94470348463307,
        "alt_km": 432.80559377475765,
        "timestamp": "2025-12-24T03:53:29.299433+00:00",
        "meta_object_name": "GPM-CORE",
        "meta_object_id": "2014-009C",
        "meta_epoch": "2025-12-23T18:18:27.425952",
        "meta_mean_motion": 15.4462821,
        "meta_eccentricity": 0.0009184,
        "meta_inclination": 64.9723,
        "meta_ra_of_asc_node": 175.7672,
        "meta_arg_of_pericenter": 249.9207,
        "meta_mean_anomaly": 110.0945,
        "meta_ephemeris_type": 0,
        "meta_classification_type": "U",
        "meta_norad_cat_id": 39574,
        "meta_element_set_no": 999,
        "meta_rev_at_epoch": 67071,
        "meta_bstar": 0.00017934,
        "meta_mean_motion_dot": 8.161e-05,
        "meta_mean_motion_ddot": 0,
        "tle_line1": "1 39574U 14009C   25357.76281743  .00008161  00000+0  17934-3 0  9994",
        "tle_line2": "2 39574  64.9723 175.7672 0009184 249.9207 110.0945 15.44628210670715"
      },
      "geometry": {
        "type": "Point",
        "coordinates": [
          -148.94470348463307,
          51.93241086678332
        ]
      }
    },
    {
      "type": "Feature",
      "properties": {
        "norad_id": 39634,
        "name": "SENTINEL-1A",
        "group": "resource",
        "lat": -28.132548642702467,
        "lon": 7.645021575867746,
        "alt_km": 701.9437123990174,
        "timestamp": "2025-12-24T03:53:29.299443+00:00",
        "meta_object_name": "SENTINEL-1A",
        "meta_object_id": "2014-016A",
        "meta_epoch": "2025-12-23T21:26:19.406688",
        "meta_mean_motion": 14.59201498,
        "meta_eccentricity": 0.0001252,
        "meta_inclination": 98.1797,
        "meta_ra_of_asc_node": 2.9694,
        "meta_arg_of_pericenter": 87.0434,
        "meta_mean_anomaly": 273.0909,
        "meta_ephemeris_type": 0,
        "meta_classification_type": "U",
        "meta_norad_cat_id": 39634,
        "meta_element_set_no": 999,
        "meta_rev_at_epoch": 62445,
        "meta_bstar": -2.9477e-05,
        "meta_mean_motion_dot": -1.85e-06,
        "meta_mean_motion_ddot": 0,
        "tle_line1": "1 39634U 14016A   25357.89328017 -.00000185  00000+0 -29477-4 0  9995",
        "tle_line2": "2 39634  98.1797   2.9694 0001252  87.0434 273.0909 14.59201498624458"
      },
      "geometry": {
        "type": "Point",
        "coordinates": [
          7.645021575867746,
          -28.132548642702467
        ]
      }
    },
    {
      "type": "Feature",
      "properties": {
        "norad_id": 39731,
        "name": "KAZEOSAT 1",
        "group": "resource",
        "lat": -36.939942673145374,
        "lon": 76.14711262590447,
        "alt_km": 758.6014776937482,
        "timestamp": "2025-12-24T03:53:29.299453+00:00",
        "meta_object_name": "KAZEOSAT 1",
        "meta_object_id": "2014-024A",
        "meta_epoch": "2025-12-23T19:44:18.121344",
        "meta_mean_motion": 14.42068306,
        "meta_eccentricity": 0.0001213,
        "meta_inclination": 98.3422,
        "meta_ra_of_asc_node": 69.4808,
        "meta_arg_of_pericenter": 96.6471,
        "meta_mean_anomaly": 263.4857,
        "meta_ephemeris_type": 0,
        "meta_classification_type": "U",
        "meta_norad_cat_id": 39731,
        "meta_element_set_no": 999,
        "meta_rev_at_epoch": 61328,
        "meta_bstar": 7.6388e-05,
        "meta_mean_motion_dot": 2.08e-06,
        "meta_mean_motion_ddot": 0,
        "tle_line1": "1 39731U 14024A   25357.82243196  .00000208  00000+0  76388-4 0  9996",
        "tle_line2": "2 39731  98.3422  69.4808 0001213  96.6471 263.4857 14.42068306613287"
      },
      "geometry": {
        "type": "Point",
        "coordinates": [
          76.14711262590447,
          -36.939942673145374
        ]
      }
    },
    {
      "type": "Feature",
      "properties": {
        "norad_id": 39766,
        "name": "ALOS-2",
        "group": "resource",
        "lat": -56.87934234676665,
        "lon": 105.17092905084462,
        "alt_km": 638.9423341149131,
        "timestamp": "2025-12-24T03:53:29.299463+00:00",
        "meta_object_name": "ALOS-2",
        "meta_object_id": "2014-029A",
        "meta_epoch": "2025-12-23T20:02:10.050720",
        "meta_mean_motion": 14.79470866,
        "meta_eccentricity": 0.0001376,
        "meta_inclination": 97.9228,
        "meta_ra_of_asc_node": 92.5233,
        "meta_arg_of_pericenter": 96.944,
        "meta_mean_anomaly": 263.1928,
        "meta_ephemeris_type": 0,
        "meta_classification_type": "U",
        "meta_norad_cat_id": 39766,
        "meta_element_set_no": 999,
        "meta_rev_at_epoch": 62565,
        "meta_bstar": 0.00029528,
        "meta_mean_motion_dot": 2.154e-05,
        "meta_mean_motion_ddot": 0,
        "tle_line1": "1 39766U 14029A   25357.83483855  .00002154  00000+0  29528-3 0  9993",
        "tle_line2": "2 39766  97.9228  92.5233 0001376  96.9440 263.1928 14.79470866625650"
      },
      "geometry": {
        "type": "Point",
        "coordinates": [
          105.17092905084462,
          -56.87934234676665
        ]
      }
    }
  ]
}